CAS-2T & KS-1Q          
1 41847U 16066G   23036.93394355  .00001657  00000+0  25778-3 0  9998
2 41847  98.5217 106.0646 0361144 230.9205 125.9344 14.39111711327921
NAYIF-1 (EO-88)         
1 42017U 17008BX  23036.67836374  .00045541  00000+0  89448-3 0  9992
2 42017  97.2373 105.5728 0003895 122.7181 237.4445 15.47169458332953
ZHUHAI-1 02 (CAS-4B)    
1 42759U 17034B   23036.70986058  .00008109  00000+0  44538-3 0  9993
2 42759  43.0168 125.0523 0011590 325.6265 166.2507 15.14373669311685
ZHUHAI-1 01 (CAS-4A)    
1 42761U 17034D   23036.73236253  .00007239  00000+0  39743-3 0  9999
2 42761  43.0152 123.5312 0011868 327.6009 170.2728 15.14509277311693
MAX VALIER SAT          
1 42778U 17036P   23036.67442718  .00012891  00000+0  41347-3 0  9990
2 42778  97.1769  75.0637 0008676 205.3705 154.7113 15.32422288312540
RADFXSAT (FOX-1B)       
1 43017U 17073E   23036.93013399  .00004689  00000+0  34079-3 0  9996
2 43017  97.6502 286.5092 0241987 141.6138 220.2577 14.83702827281708
FOX-1D (AO-92)          
1 43137U 18004AC  23036.72902348  .00020448  00000+0  58170-3 0  9991
2 43137  97.3448 115.3625 0006029 251.0190 109.0401 15.36149205282062
DIWATA-2B               
1 43678U 18084H   23036.84110992  .00001696  00000+0  16987-3 0  9992
2 43678  97.9980 178.3949 0008716 232.0504 127.9899 14.92752439232661
ES'HAIL 2               
1 43700U 18090A   23036.87711594  .00000148  00000+0  00000+0 0  9999
2 43700   0.0185  99.1240 0002606 253.8775 124.3057  1.00275365 15373
FOX-1CLIFF (AO-95)      
1 43770U 18099N   23036.92592176  .00005378  00000+0  45951-3 0  9992
2 43770  97.5922 102.0339 0012920 204.7798 155.2805 14.98001552227941
ITASAT 1                
1 43786U 18099AE  23036.90956644  .00003962  00000+0  34032-3 0  9996
2 43786  97.5938 103.0422 0014260 200.9075 159.1566 14.97930146227984
JY1SAT (JO-97)          
1 43803U 18099AX  23036.16017709  .00004276  00000+0  35897-3 0  9993
2 43803  97.5909 102.1819 0013671 204.4944 155.5631 14.98787241227903
UWE-4                   
1 43880U 18111E   23036.71757331  .00004984  00000+0  40445-3 0  9997
2 43880  97.6554 304.0036 0012272 258.2305 101.7542 15.00039393224647
NEXUS (FO-99)           
1 43937U 19003F   23036.70225210  .00027581  00000+0  70880-3 0  9990
2 43937  97.1059  66.7137 0018004  41.8914 318.3706 15.39085273225739
PSAT2 (NO-104)          
1 44354U 19036R   23036.91167094  .00808288  31152-3  88339-3 0  9993
2 44354  28.5136 312.5682 0054899 164.6824 195.5466 16.05312246201155
JAISAT-1                
1 44419U 19038F   23036.88973173  .00019156  00000+0  81745-3 0  9992
2 44419  97.6634  15.0331 0019059  49.8748 310.4155 15.22787542198501
DUCHIFAT-3              
1 44854U 19089C   23036.73901728  .00007524  00000+0  54711-3 0  9991
2 44854  36.9624 155.3549 0008404 322.6760 186.4650 15.03435989173021
CAS-6 (TIANQIN 1)       
1 44881U 19093C   23036.80345141  .00000986  00000+0  13042-3 0  9992
2 44881  97.8736 117.4701 0015633 142.4735 217.7582 14.82104691169332
RS-44 & BREEZE-KM R/B   
1 44909U 19096E   23036.79943491  .00000038  00000+0  98942-4 0  9997
2 44909  82.5179  75.2513 0218317 133.9774 227.9562 12.79718078145350
ORBITAL FACTORY 2 (OF-2)
1 45113U 19071C   23036.21784349  .00148283  00000+0  11020-2 0  9995
2 45113  51.6311 339.0210 0001084   3.3816 356.7190 15.71850220169575
HUSKYSAT-1 (HO-107)     
1 45119U 19071J   23036.44206100  .00097896  00000+0  95145-3 0  9994
2 45119  51.6334 341.9964 0002369 330.1776  29.9084 15.65507404169541
BY70-2                  
1 45857U 20042B   23036.77843597  .00012707  00000+0  15216-2 0  9994
2 45857  97.9376 116.7655 0009854  80.1013 280.1332 14.84210743140000
SALSAT                  
1 46495U 20068K   23036.78242209  .00004465  00000+0  30996-3 0  9990
2 46495  97.7573 343.6745 0015248 199.8046 160.2590 15.06004615129280
BY70-3                  
1 46839U 20079N   23036.84490106  .00099101  00000+0  11099-2 0  9995
2 46839  97.1695 112.8886 0004097 210.0150 256.9898 15.62367266126372
RADFXSAT-2 (AO-109)     
1 47311U 21002C   23036.81984048  .00020793  00000+0  68211-3 0  9998
2 47311  60.6817 200.7128 0036114 108.9482 251.5529 15.31040729114112
UVSQ-SAT                
1 47438U 21006AB  23036.88285828  .00011404  00000+0  53876-3 0  9999
2 47438  97.4064  96.1769 0010958 176.2344 183.8975 15.19526207112672
DIY-1 (ARDUIQUBE)       
1 47963U 21022AH  23036.68298512  .00047898  00000+0  18361-2 0  9997
2 47963  97.5156 301.6543 0016213  53.9944 306.2794 15.26230192102334
XW-3 (CAS-9)            
1 50466U 21131B   23036.87425844  .00000831  00000+0  28561-3 0  9991
2 50466  98.5617 118.8138 0005095 162.8033 197.3328 14.38659210 58477
TEVEL-3                 
1 50988U 22002E   23036.85458417  .00013705  00000+0  65729-3 0  9999
2 50988  97.4535 105.1591 0008143 339.6899  80.4936 15.18981514 58781
TEVEL-8                 
1 50989U 22002F   23036.86780588  .00013704  00000+0  65835-3 0  9995
2 50989  97.4556 105.2175 0008122 339.2420  79.6095 15.18923582 58784
TEVEL-5                 
1 50998U 22002Q   23036.86072225  .00014164  00000+0  66725-3 0  9997
2 50998  97.4525 105.4187 0009385 333.1894  86.0387 15.19586254 58806
TEVEL-6                 
1 50999U 22002R   23036.87161072  .00014151  00000+0  66654-3 0  9995
2 50999  97.4526 105.4253 0009401 333.4219 151.8300 15.19592516 58809
TEVEL-1                 
1 51013U 22002AF  23036.86087416  .00013613  00000+0  65356-3 0  9991
2 51013  97.4527 105.1261 0007943 339.6866  79.4969 15.18950404 58785
TEVEL-7                 
1 51062U 22002CG  23036.87041323  .00013734  00000+0  65969-3 0  9997
2 51062  97.4548 105.1987 0008159 338.9478  83.3042 15.18928196 58787
TEVEL-4                 
1 51063U 22002CH  23036.75704586  .00013636  00000+0  65562-3 0  9992
2 51063  97.4548 105.0775 0008055 339.9117 168.4953 15.18898771 58767
TEVEL-2                 
1 51069U 22002CP  23036.85634183  .00013694  00000+0  65686-3 0  9995
2 51069  97.4536 105.1402 0008048 339.6409  79.8926 15.18979783 58781
GREENCUBE               
1 53106U 22080B   23034.19933790 -.00000003  00000+0  00000+0 0  9992
2 53106  70.1777   6.2677 0008922 216.5435 143.4616  6.42557193 13147
RS29S (SXC3-2110 CYCLO*)
1 53373U 22096D   23036.95764267  .00020215  00000+0  69913-3 0  9990
2 53373  97.4265 302.5169 0001450  71.9537 344.8293 15.29930121 27560
RS32S (SXC3-212 MONITO*)
1 53374U 22096E   23036.82398686  .00019097  00000+0  66390-3 0  9997
2 53374  97.4263 302.3857 0001293  98.6443 334.3715 15.29772197 27546
RS34S (SXC3-218 KUZBAS*)
1 53375U 22096F   23036.85715756  .00016558  00000+0  58872-3 0  9997
2 53375  97.4272 302.3485 0001244  94.9544 330.5122 15.29068927 27540
RS23S (SXC3-21 UTMN)    
1 53376U 22096G   23036.92642797  .00017280  00000+0  61081-3 0  9999
2 53376  97.4264 302.4357 0001305 102.4132  30.2698 15.29250419 27559
RS28S (SXC3-214 MIET-A*)
1 53377U 22096H   23036.93056413  .00016420  00000+0  58389-3 0  9997
2 53377  97.4276 302.4345 0001170  93.9917  36.7204 15.29065121 27553
RS26S (KAI-1)           
1 53378U 22096J   23036.87139150  .00013698  00000+0  49493-3 0  9991
2 53378  97.4272 302.3310 0001207 102.0395 323.0691 15.28582064 27544
RS19S (SXC3-219 ISOI)   
1 53381U 22096M   23036.86079919  .00016408  00000+0  57380-3 0  9996
2 53381  97.4269 302.4946 0004641 139.0423 285.7043 15.29603804 27550
RS21S (CUBESX-HSE-2)    
1 53383U 22096P   23036.85439412  .00016806  00000+0  58567-3 0  9995
2 53383  97.4272 302.5074 0004982 141.3843 283.5596 15.29711284 27550
RS30S (SXC3-217 SIREN)  
1 53384U 22096Q   23036.80463509  .00014578  00000+0  51496-3 0  9993
2 53384  97.4272 302.4225 0004829 140.1984 292.2437 15.29299678 27549
RS20S (GEOSCAN-EDELVEIS)
1 53385U 22096R   23036.84708309  .00021414  00000+0  71544-3 0  9991
2 53385  97.4264 302.6614 0005250 138.5863 286.6657 15.31028073 27599
RS33S (SXC3-215 VIZARD) 
1 53386U 22096S   23036.83144030  .00024261  00000+0  77947-3 0  9992
2 53386  97.4262 302.8216 0006057 143.4296 258.1760 15.32257965 27593
CAS-5A (FO-118)         
1 54684U 22167C   23036.88798089  .00009371  00000+0  57964-3 0  9999
2 54684  97.5395 175.8974 0015167  67.3323  87.5912 15.09948655  8835
CAS-10                  
1 54816U 21035C   23036.90650363  .00146087  00000+0  95185-3 0  9997
2 54816  41.4756 233.5149 0013960 271.2542  88.6706 15.74524407  7698
